ORBCOMM FM08            
1 25112U 97084A   25072.53614879  .00003802  00000+0  11132-2 0  9990
2 25112  45.0123 106.8856 0004231 141.4298 218.6856 14.45273350427532
ORBCOMM FM10            
1 25113U 97084B   25072.57244596  .00003950  00000+0  11601-2 0  9995
2 25113  45.0138 108.9267 0002045  84.5326 275.5758 14.45069368602684
ORBCOMM FM11            
1 25114U 97084C   25072.56060827  .00003091  00000+0  92155-3 0  9998
2 25114  45.0124 109.4446 0002894  90.1002 270.0181 14.44824412427640
ORBCOMM FM12            
1 25115U 97084D   25072.45540998  .00003555  00000+0  10531-2 0  9991
2 25115  45.0130 109.7097 0001886  83.5702 276.5363 14.44844656427427
ORBCOMM FM09            
1 25116U 97084E   25072.47986792  .00002969  00000+0  88836-3 0  9992
2 25116  45.0135 110.4344 0003397  63.7359 296.3841 14.44736184427634
